[{"OBJECT_NAME":"STARLINK-35281","OBJECT_ID":"2025-221B","EPOCH":"2026-03-09T08:01:13.983168","MEAN_MOTION":15.3018104,"ECCENTRICITY":0.00011903,"INCLINATION":53.1588,"RA_OF_ASC_NODE":90.3744,"ARG_OF_PERICENTER":83.026,"MEAN_ANOMALY":277.0877,"EPHEMERIS_TYPE":0,"CLASSIFICATION_TYPE":"U","NORAD_CAT_ID":65824,"ELEMENT_SET_NO":999,"REV_AT_EPOCH":2602,"BSTAR":0.00013385737,"MEAN_MOTION_DOT":3.605e-5,"MEAN_MOTION_DDOT":0},{"OBJECT_NAME":"CZ-4B DEB","OBJECT_ID":"1999-057H","EPOCH":"2026-03-09T17:25:29.363520","MEAN_MOTION":15.25756771,"ECCENTRICITY":0.00339549,"INCLINATION":98.6728,"RA_OF_ASC_NODE":149.1557,"ARG_OF_PERICENTER":175.409,"MEAN_ANOMALY":184.7463,"EPHEMERIS_TYPE":0,"CLASSIFICATION_TYPE":"U","NORAD_CAT_ID":26121,"ELEMENT_SET_NO":999,"REV_AT_EPOCH":41150,"BSTAR":0.00075758105,"MEAN_MOTION_DOT":0.00019602,"MEAN_MOTION_DDOT":0}]
